{
  "type": "FeatureCollection",
  "features": [
    {
      "type": "Feature",
      "properties": {
        "norad_id": 34784,
        "name": "COSMOS 2251 DEB",
        "group": "cosmos-2251-debris",
        "lat": -69.25171650888748,
        "lon": -178.22328801105922,
        "alt_km": 722.6422279888129,
        "timestamp": "2025-12-18T21:31:51.400182+00:00",
        "meta_object_name": "COSMOS 2251 DEB",
        "meta_object_id": "1993-036AAM",
        "meta_epoch": "2025-12-17T22:59:49.585056",
        "meta_mean_motion": 14.6080281,
        "meta_eccentricity": 0.00492358,
        "meta_inclination": 74.007,
        "meta_ra_of_asc_node": 314.3664,
        "meta_arg_of_pericenter": 122.1493,
        "meta_mean_anomaly": 238.4464,
        "meta_ephemeris_type": 0,
        "meta_classification_type": "U",
        "meta_norad_cat_id": 34784,
        "meta_element_set_no": 999,
        "meta_rev_at_epoch": 88611,
        "meta_bstar": 0.00037429816,
        "meta_mean_motion_dot": 1.829e-05,
        "meta_mean_motion_ddot": 0,
        "tle_line1": "1 34784U 93036AAM 25351.95821279  .00001829  00000+0  37430-3 0  9995",
        "tle_line2": "2 34784  74.0070 314.3664 0049235 122.1493 238.4464 14.60802810886113"
      },
      "geometry": {
        "type": "Point",
        "coordinates": [
          -178.22328801105922,
          -69.25171650888748
        ]
      }
    },
    {
      "type": "Feature",
      "properties": {
        "norad_id": 34790,
        "name": "COSMOS 2251 DEB",
        "group": "cosmos-2251-debris",
        "lat": -54.67833444407811,
        "lon": -151.17414997775214,
        "alt_km": 744.8989719854744,
        "timestamp": "2025-12-18T21:31:51.400193+00:00",
        "meta_object_name": "COSMOS 2251 DEB",
        "meta_object_id": "1993-036AAT",
        "meta_epoch": "2025-12-17T17:25:06.466656",
        "meta_mean_motion": 14.24650914,
        "meta_eccentricity": 0.01005759,
        "meta_inclination": 74.0544,
        "meta_ra_of_asc_node": 234.7292,
        "meta_arg_of_pericenter": 295.3819,
        "meta_mean_anomaly": 121.2605,
        "meta_ephemeris_type": 0,
        "meta_classification_type": "U",
        "meta_norad_cat_id": 34790,
        "meta_element_set_no": 999,
        "meta_rev_at_epoch": 86644,
        "meta_bstar": 0.00056948117,
        "meta_mean_motion_dot": 1.369e-05,
        "meta_mean_motion_ddot": 0,
        "tle_line1": "1 34790U 93036AAT 25351.72576929  .00001369  00000+0  56948-3 0  9990",
        "tle_line2": "2 34790  74.0544 234.7292 0100575 295.3819 121.2605 14.24650914866444"
      },
      "geometry": {
        "type": "Point",
        "coordinates": [
          -151.17414997775214,
          -54.67833444407811
        ]
      }
    },
    {
      "type": "Feature",
      "properties": {
        "norad_id": 34792,
        "name": "COSMOS 2251 DEB",
        "group": "cosmos-2251-debris",
        "lat": -41.97153376680186,
        "lon": -7.037219264155589,
        "alt_km": 704.584986682562,
        "timestamp": "2025-12-18T21:31:51.400203+00:00",
        "meta_object_name": "COSMOS 2251 DEB",
        "meta_object_id": "1993-036AAV",
        "meta_epoch": "2025-12-18T05:55:58.219104",
        "meta_mean_motion": 14.55999779,
        "meta_eccentricity": 0.00124545,
        "meta_inclination": 74.017,
        "meta_ra_of_asc_node": 159.2558,
        "meta_arg_of_pericenter": 253.7057,
        "meta_mean_anomaly": 165.1167,
        "meta_ephemeris_type": 0,
        "meta_classification_type": "U",
        "meta_norad_cat_id": 34792,
        "meta_element_set_no": 999,
        "meta_rev_at_epoch": 87730,
        "meta_bstar": 0.00083110829,
        "meta_mean_motion_dot": 3.634e-05,
        "meta_mean_motion_ddot": 0,
        "tle_line1": "1 34792U 93036AAV 25352.24720161  .00003634  00000+0  83111-3 0  9998",
        "tle_line2": "2 34792  74.0170 159.2558 0012454 253.7057 165.1167 14.55999779877303"
      },
      "geometry": {
        "type": "Point",
        "coordinates": [
          -7.037219264155589,
          -41.97153376680186
        ]
      }
    },
    {
      "type": "Feature",
      "properties": {
        "norad_id": 34793,
        "name": "COSMOS 2251 DEB",
        "group": "cosmos-2251-debris",
        "lat": -20.81468821458463,
        "lon": -127.2692314687607,
        "alt_km": 746.058040610339,
        "timestamp": "2025-12-18T21:31:51.400213+00:00",
        "meta_object_name": "COSMOS 2251 DEB",
        "meta_object_id": "1993-036AAW",
        "meta_epoch": "2025-12-18T04:01:14.255040",
        "meta_mean_motion": 14.38653355,
        "meta_eccentricity": 0.00505244,
        "meta_inclination": 74.0023,
        "meta_ra_of_asc_node": 240.3395,
        "meta_arg_of_pericenter": 33.0541,
        "meta_mean_anomaly": 128.6501,
        "meta_ephemeris_type": 0,
        "meta_classification_type": "U",
        "meta_norad_cat_id": 34793,
        "meta_element_set_no": 999,
        "meta_rev_at_epoch": 87408,
        "meta_bstar": 0.000197157,
        "meta_mean_motion_dot": 5.87e-06,
        "meta_mean_motion_ddot": 0,
        "tle_line1": "1 34793U 93036AAW 25352.16752610  .00000587  00000+0  19716-3 0  9998",
        "tle_line2": "2 34793  74.0023 240.3395 0050524  33.0541 128.6501 14.38653355874085"
      },
      "geometry": {
        "type": "Point",
        "coordinates": [
          -127.2692314687607,
          -20.81468821458463
        ]
      }
    },
    {
      "type": "Feature",
      "properties": {
        "norad_id": 34796,
        "name": "COSMOS 2251 DEB",
        "group": "cosmos-2251-debris",
        "lat": -60.332938931516686,
        "lon": 174.61802953610942,
        "alt_km": 666.4493536462624,
        "timestamp": "2025-12-18T21:31:51.400224+00:00",
        "meta_object_name": "COSMOS 2251 DEB",
        "meta_object_id": "1993-036AAZ",
        "meta_epoch": "2025-12-18T00:58:42.599712",
        "meta_mean_motion": 14.48715107,
        "meta_eccentricity": 0.01002655,
        "meta_inclination": 74.0291,
        "meta_ra_of_asc_node": 206.4055,
        "meta_arg_of_pericenter": 307.3588,
        "meta_mean_anomaly": 203.8447,
        "meta_ephemeris_type": 0,
        "meta_classification_type": "U",
        "meta_norad_cat_id": 34796,
        "meta_element_set_no": 999,
        "meta_rev_at_epoch": 88104,
        "meta_bstar": 0.00045377195,
        "meta_mean_motion_dot": 1.793e-05,
        "meta_mean_motion_ddot": 0,
        "tle_line1": "1 34796U 93036AAZ 25352.04077083  .00001793  00000+0  45377-3 0  9994",
        "tle_line2": "2 34796  74.0291 206.4055 0100265 307.3588 203.8447 14.48715107881041"
      },
      "geometry": {
        "type": "Point",
        "coordinates": [
          174.61802953610942,
          -60.332938931516686
        ]
      }
    },
    {
      "type": "Feature",
      "properties": {
        "norad_id": 34797,
        "name": "COSMOS 2251 DEB",
        "group": "cosmos-2251-debris",
        "lat": -64.31168500215267,
        "lon": 51.82582794979615,
        "alt_km": 754.7694511726613,
        "timestamp": "2025-12-18T21:31:51.400234+00:00",
        "meta_object_name": "COSMOS 2251 DEB",
        "meta_object_id": "1993-036ABA",
        "meta_epoch": "2025-12-18T00:13:25.547808",
        "meta_mean_motion": 14.42897737,
        "meta_eccentricity": 0.00715437,
        "meta_inclination": 73.9766,
        "meta_ra_of_asc_node": 90.1656,
        "meta_arg_of_pericenter": 202.9478,
        "meta_mean_anomaly": 156.8478,
        "meta_ephemeris_type": 0,
        "meta_classification_type": "U",
        "meta_norad_cat_id": 34797,
        "meta_element_set_no": 999,
        "meta_rev_at_epoch": 87491,
        "meta_bstar": 0.0016453837,
        "meta_mean_motion_dot": 5.647e-05,
        "meta_mean_motion_ddot": 0,
        "tle_line1": "1 34797U 93036ABA 25352.00932347  .00005647  00000+0  16454-2 0  9999",
        "tle_line2": "2 34797  73.9766  90.1656 0071543 202.9478 156.8478 14.42897737874919"
      },
      "geometry": {
        "type": "Point",
        "coordinates": [
          51.82582794979615,
          -64.31168500215267
        ]
      }
    },
    {
      "type": "Feature",
      "properties": {
        "norad_id": 34814,
        "name": "COSMOS 2251 DEB",
        "group": "cosmos-2251-debris",
        "lat": 37.708375060449015,
        "lon": 121.11351869883113,
        "alt_km": 746.6074689597208,
        "timestamp": "2025-12-18T21:31:51.400245+00:00",
        "meta_object_name": "COSMOS 2251 DEB",
        "meta_object_id": "1993-036ABD",
        "meta_epoch": "2025-12-17T08:49:34.119264",
        "meta_mean_motion": 14.36914952,
        "meta_eccentricity": 0.00558926,
        "meta_inclination": 73.8956,
        "meta_ra_of_asc_node": 316.8548,
        "meta_arg_of_pericenter": 205.4684,
        "meta_mean_anomaly": 307.3542,
        "meta_ephemeris_type": 0,
        "meta_classification_type": "U",
        "meta_norad_cat_id": 34814,
        "meta_element_set_no": 999,
        "meta_rev_at_epoch": 87399,
        "meta_bstar": 0.00059110324,
        "meta_mean_motion_dot": 1.754e-05,
        "meta_mean_motion_ddot": 0,
        "tle_line1": "1 34814U 93036ABD 25351.36775601  .00001754  00000+0  59110-3 0  9997",
        "tle_line2": "2 34814  73.8956 316.8548 0055892 205.4684 307.3542 14.36914952873997"
      },
      "geometry": {
        "type": "Point",
        "coordinates": [
          121.11351869883113,
          37.708375060449015
        ]
      }
    }
  ]
}